sat00631
1 00631U 63030E   20046.83035547 -.00000014  00000-0 -80498-2 0  9997
2 00631  88.4258 346.8770 0215377 225.0097 133.3117  8.55908983767994
